{"type":"FeatureCollection","crs":{"type":"name","properties":{"name":"EPSG:4326"}},"features":[{"type":"Feature","id":1,"geometry":{"type":"Point","coordinates":[-96.3189077177119,30.6126415031111]},"properties":{"OBJECTID":1,"Building_NM":"HEB Pharmacy","latitude":30.6126415,"longitude":-96.31890772,"Operation_Hours":null}},{"type":"Feature","id":2,"geometry":{"type":"Point","coordinates":[-96.3150020018584,30.6104469954647]},"properties":{"OBJECTID":2,"Building_NM":"CVS Pharmacy","latitude":30.610447,"longitude":-96.315002,"Operation_Hours":null}},{"type":"Feature","id":3,"geometry":{"type":"Point","coordinates":[-96.312307303941,30.6091388734994]},"properties":{"OBJECTID":3,"Building_NM":"Walgreens","latitude":30.60913887,"longitude":-96.3123073,"Operation_Hours":null}},{"type":"Feature","id":4,"geometry":{"type":"Point","coordinates":[-96.3093793377989,30.6081248308376]},"properties":{"OBJECTID":4,"Building_NM":"CVS Pharmacy","latitude":30.60812483,"longitude":-96.30937934,"Operation_Hours":null}},{"type":"Feature","id":5,"geometry":{"type":"Point","coordinates":[-96.3015472870611,30.6345133671038]},"properties":{"OBJECTID":5,"Building_NM":"Sam's Club Pharmacy","latitude":30.63451337,"longitude":-96.30154729,"Operation_Hours":null}},{"type":"Feature","id":6,"geometry":{"type":"Point","coordinates":[-96.3004613280872,30.5971737910947]},"properties":{"OBJECTID":6,"Building_NM":"Walmart Pharmacy","latitude":30.59717379,"longitude":-96.30046133,"Operation_Hours":null}},{"type":"Feature","id":7,"geometry":{"type":"Point","coordinates":[-96.342724657415,30.6156712409494]},"properties":{"OBJECTID":7,"Building_NM":"University Health Services","latitude":30.61567124,"longitude":-96.34272466,"Operation_Hours":null}},{"type":"Feature","id":8,"geometry":{"type":"Point","coordinates":[-96.3423882823586,30.6212969474592]},"properties":{"OBJECTID":8,"Building_NM":"CVS Pharmacy","latitude":30.62129695,"longitude":-96.34238828,"Operation_Hours":null}},{"type":"Feature","id":9,"geometry":{"type":"Point","coordinates":[-96.3421735562596,30.6002971961209]},"properties":{"OBJECTID":9,"Building_NM":"Brookshire Brothers Pharmacy","latitude":30.6002972,"longitude":-96.34217356,"Operation_Hours":null}},{"type":"Feature","id":10,"geometry":{"type":"Point","coordinates":[-96.3279398044816,30.6448161933953]},"properties":{"OBJECTID":10,"Building_NM":"Goldstar LTC Pharmacy","latitude":30.64481619,"longitude":-96.3279398,"Operation_Hours":null}},{"type":"Feature","id":11,"geometry":{"type":"Point","coordinates":[-96.3215431555666,30.5833179602673]},"properties":{"OBJECTID":11,"Building_NM":"HEB Pharmacy","latitude":30.58331796,"longitude":-96.32154316,"Operation_Hours":null}},{"type":"Feature","id":12,"geometry":{"type":"Point","coordinates":[-96.3520600414757,30.6112826851239]},"properties":{"OBJECTID":12,"Building_NM":"College of Medicine","latitude":30.61128269,"longitude":-96.35206004,"Operation_Hours":null}},{"type":"Feature","id":13,"geometry":{"type":"Point","coordinates":[-96.2973304352173,30.6507203219849]},"properties":{"OBJECTID":13,"Building_NM":"IV RX Pharmacy","latitude":30.65072032,"longitude":-96.29733044,"Operation_Hours":null}},{"type":"Feature","id":14,"geometry":{"type":"Point","coordinates":[-96.2881169633204,30.5841407278128]},"properties":{"OBJECTID":14,"Building_NM":"Walgreens","latitude":30.58414073,"longitude":-96.28811696,"Operation_Hours":null}},{"type":"Feature","id":15,"geometry":{"type":"Point","coordinates":[-96.3494931980778,30.6394963247736]},"properties":{"OBJECTID":15,"Building_NM":"Healthpoint Pharmacy","latitude":30.63949632,"longitude":-96.3494932,"Operation_Hours":null}},{"type":"Feature","id":16,"geometry":{"type":"Point","coordinates":[-96.2865089789619,30.5835200056935]},"properties":{"OBJECTID":16,"Building_NM":"CVS Pharmacy","latitude":30.58352001,"longitude":-96.28650898,"Operation_Hours":null}},{"type":"Feature","id":17,"geometry":{"type":"Point","coordinates":[-96.3501728032347,30.638911435363]},"properties":{"OBJECTID":17,"Building_NM":"Healthpoint- Clinic","latitude":30.63891144,"longitude":-96.3501728,"Operation_Hours":null}},{"type":"Feature","id":18,"geometry":{"type":"Point","coordinates":[-96.2910789603405,30.5814340013496]},"properties":{"OBJECTID":18,"Building_NM":"Chi Saint Joseph Internal Medicine","latitude":30.581434,"longitude":-96.29107896,"Operation_Hours":null}},{"type":"Feature","id":19,"geometry":{"type":"Point","coordinates":[-96.286000868481,30.5816645035417]},"properties":{"OBJECTID":19,"Building_NM":"Kroger Pharmacy","latitude":30.5816645,"longitude":-96.28600087,"Operation_Hours":null}},{"type":"Feature","id":20,"geometry":{"type":"Point","coordinates":[-96.3366055780413,30.653380372101]},"properties":{"OBJECTID":20,"Building_NM":"Farmacia Central Rx","latitude":30.65338037,"longitude":-96.33660558,"Operation_Hours":null}},{"type":"Feature","id":21,"geometry":{"type":"Point","coordinates":[-96.3504514175167,30.6441615665614]},"properties":{"OBJECTID":21,"Building_NM":"HEB Pharmacy","latitude":30.64416157,"longitude":-96.35045142,"Operation_Hours":null}},{"type":"Feature","id":22,"geometry":{"type":"Point","coordinates":[-96.3305364342177,30.6576630003589]},"properties":{"OBJECTID":22,"Building_NM":"Walmart Pharmacy","latitude":30.657663,"longitude":-96.33053643,"Operation_Hours":null}},{"type":"Feature","id":23,"geometry":{"type":"Point","coordinates":[-96.2794310639051,30.5824568712864]},"properties":{"OBJECTID":23,"Building_NM":"Baylor Scott & White Pharmacy","latitude":30.58245687,"longitude":-96.27943106,"Operation_Hours":null}},{"type":"Feature","id":24,"geometry":{"type":"Point","coordinates":[-96.3376724514087,30.6549755208474]},"properties":{"OBJECTID":24,"Building_NM":"Walgreens","latitude":30.65497552,"longitude":-96.33767245,"Operation_Hours":null}},{"type":"Feature","id":25,"geometry":{"type":"Point","coordinates":[-96.3534019313724,30.6428918754548]},"properties":{"OBJECTID":25,"Building_NM":"CVS Pharmacy","latitude":30.64289188,"longitude":-96.35340193,"Operation_Hours":null}},{"type":"Feature","id":26,"geometry":{"type":"Point","coordinates":[-96.3505127778405,30.6466009304752]},"properties":{"OBJECTID":26,"Building_NM":"Asclepius RX","latitude":30.64660093,"longitude":-96.35051278,"Operation_Hours":null}},{"type":"Feature","id":27,"geometry":{"type":"Point","coordinates":[-96.3537470137989,30.6444298709229]},"properties":{"OBJECTID":27,"Building_NM":"Walgreens Pharmacy","latitude":30.64442987,"longitude":-96.35374701,"Operation_Hours":null}},{"type":"Feature","id":28,"geometry":{"type":"Point","coordinates":[-96.342473863059,30.6551429841436]},"properties":{"OBJECTID":28,"Building_NM":"Village Foods & Pharmacy","latitude":30.65514298,"longitude":-96.34247386,"Operation_Hours":null}},{"type":"Feature","id":29,"geometry":{"type":"Point","coordinates":[-96.3481741146096,30.6552648154933]},"properties":{"OBJECTID":29,"Building_NM":"BCS Pharmacy","latitude":30.65526482,"longitude":-96.34817411,"Operation_Hours":null}},{"type":"Feature","id":30,"geometry":{"type":"Point","coordinates":[-96.3482016362949,30.6565036073577]},"properties":{"OBJECTID":30,"Building_NM":"Cancer Clinic Pharmacy","latitude":30.65650361,"longitude":-96.34820164,"Operation_Hours":null}},{"type":"Feature","id":31,"geometry":{"type":"Point","coordinates":[-96.3819159083712,30.6320259540355]},"properties":{"OBJECTID":31,"Building_NM":"Walmart","latitude":30.63202595,"longitude":-96.38191591,"Operation_Hours":null}},{"type":"Feature","id":32,"geometry":{"type":"Point","coordinates":[-96.3338097388061,30.671433556401]},"properties":{"OBJECTID":32,"Building_NM":"Walgreens","latitude":30.67143356,"longitude":-96.33380974,"Operation_Hours":null}},{"type":"Feature","id":33,"geometry":{"type":"Point","coordinates":[-96.3219489236821,30.6654134627891]},"properties":{"OBJECTID":33,"Building_NM":"CVS Pharmacy- target","latitude":30.66541346,"longitude":-96.32194892,"Operation_Hours":null}},{"type":"Feature","id":34,"geometry":{"type":"Point","coordinates":[-96.3717096462701,30.69024907927]},"properties":{"OBJECTID":34,"Building_NM":"HEB Pharmacy","latitude":30.69024908,"longitude":-96.37170965,"Operation_Hours":null}},{"type":"Feature","id":35,"geometry":{"type":"Point","coordinates":[-96.3601779999173,30.651385000374]},"properties":{"OBJECTID":35,"Building_NM":"Nova medical center","latitude":30.651385,"longitude":-96.360178,"Operation_Hours":null}},{"type":"Feature","id":36,"geometry":{"type":"Point","coordinates":[-96.3691329995575,30.67458400023]},"properties":{"OBJECTID":36,"Building_NM":"Brazos County Health district","latitude":30.674584,"longitude":-96.369133,"Operation_Hours":null}}]}